<?xml version="1.0" encoding="UTF-8"?>
<ndm xmlns:xsi="http://www.w3.org/2001/XMLSchema-instance" xsi:noNamespaceSchemaLocation="https://sanaregistry.org/r/ndmxml_unqualified/ndmxml-2.0.0-master-2.0.xsd">
<omm id="CCSDS_OMM_VERS" version="2.0">
<header><CREATION_DATE/><ORIGINATOR/></header><body><segment><metadata><OBJECT_NAME>GLOBALSTAR M024</OBJECT_NAME><OBJECT_ID>1999-043A</OBJECT_ID><CENTER_NAME>EARTH</CENTER_NAME><REF_FRAME>TEME</REF_FRAME><TIME_SYSTEM>UTC</TIME_SYSTEM><MEAN_ELEMENT_THEORY>SGP4</MEAN_ELEMENT_THEORY></metadata><data><meanElements><EPOCH>2024-05-18T10:46:12.842400</EPOCH><MEAN_MOTION>11.10158955</MEAN_MOTION><ECCENTRICITY>.0001798</ECCENTRICITY><INCLINATION>51.9990</INCLINATION><RA_OF_ASC_NODE>191.2837</RA_OF_ASC_NODE><ARG_OF_PERICENTER>184.2938</ARG_OF_PERICENTER><MEAN_ANOMALY>188.4151</MEAN_ANOMALY></meanElements><tleParameters><EPHEMERIS_TYPE>0</EPHEMERIS_TYPE><CLASSIFICATION_TYPE>U</CLASSIFICATION_TYPE><NORAD_CAT_ID>25883</NORAD_CAT_ID><ELEMENT_SET_NO>999</ELEMENT_SET_NO><REV_AT_EPOCH>7102</REV_AT_EPOCH><BSTAR>-.2E-2</BSTAR><MEAN_MOTION_DOT>-.121E-5</MEAN_MOTION_DOT><MEAN_MOTION_DDOT>0</MEAN_MOTION_DDOT></tleParameters></data></segment></body></omm>
<omm id="CCSDS_OMM_VERS" version="2.0">
<header><CREATION_DATE/><ORIGINATOR/></header><body><segment><metadata><OBJECT_NAME>GLOBALSTAR M027</OBJECT_NAME><OBJECT_ID>1999-043B</OBJECT_ID><CENTER_NAME>EARTH</CENTER_NAME><REF_FRAME>TEME</REF_FRAME><TIME_SYSTEM>UTC</TIME_SYSTEM><MEAN_ELEMENT_THEORY>SGP4</MEAN_ELEMENT_THEORY></metadata><data><meanElements><EPOCH>2024-05-18T14:09:20.015136</EPOCH><MEAN_MOTION>11.04368665</MEAN_MOTION><ECCENTRICITY>.002158</ECCENTRICITY><INCLINATION>52.0213</INCLINATION><RA_OF_ASC_NODE>257.7681</RA_OF_ASC_NODE><ARG_OF_PERICENTER>75.7720</ARG_OF_PERICENTER><MEAN_ANOMALY>284.5469</MEAN_ANOMALY></meanElements><tleParameters><EPHEMERIS_TYPE>0</EPHEMERIS_TYPE><CLASSIFICATION_TYPE>U</CLASSIFICATION_TYPE><NORAD_CAT_ID>25884</NORAD_CAT_ID><ELEMENT_SET_NO>999</ELEMENT_SET_NO><REV_AT_EPOCH>9764</REV_AT_EPOCH><BSTAR>.1727E-2</BSTAR><MEAN_MOTION_DOT>-.18E-6</MEAN_MOTION_DOT><MEAN_MOTION_DDOT>0</MEAN_MOTION_DDOT></tleParameters></data></segment></body></omm>
<omm id="CCSDS_OMM_VERS" version="2.0">
<header><CREATION_DATE/><ORIGINATOR/></header><body><segment><metadata><OBJECT_NAME>GLOBALSTAR M054</OBJECT_NAME><OBJECT_ID>1999-043C</OBJECT_ID><CENTER_NAME>EARTH</CENTER_NAME><REF_FRAME>TEME</REF_FRAME><TIME_SYSTEM>UTC</TIME_SYSTEM><MEAN_ELEMENT_THEORY>SGP4</MEAN_ELEMENT_THEORY></metadata><data><meanElements><EPOCH>2024-05-18T13:46:38.548128</EPOCH><MEAN_MOTION>11.39203388</MEAN_MOTION><ECCENTRICITY>.0004386</ECCENTRICITY><INCLINATION>52.0129</INCLINATION><RA_OF_ASC_NODE>91.3200</RA_OF_ASC_NODE><ARG_OF_PERICENTER>224.3826</ARG_OF_PERICENTER><MEAN_ANOMALY>308.9778</MEAN_ANOMALY></meanElements><tleParameters><EPHEMERIS_TYPE>0</EPHEMERIS_TYPE><CLASSIFICATION_TYPE>U</CLASSIFICATION_TYPE><NORAD_CAT_ID>25885</NORAD_CAT_ID><ELEMENT_SET_NO>999</ELEMENT_SET_NO><REV_AT_EPOCH>7407</REV_AT_EPOCH><BSTAR>.24913E-3</BSTAR><MEAN_MOTION_DOT>-.61E-6</MEAN_MOTION_DOT><MEAN_MOTION_DDOT>0</MEAN_MOTION_DDOT></tleParameters></data></segment></body></omm>
<omm id="CCSDS_OMM_VERS" version="2.0">
<header><CREATION_DATE/><ORIGINATOR/></header><body><segment><metadata><OBJECT_NAME>GLOBALSTAR M053</OBJECT_NAME><OBJECT_ID>1999-043D</OBJECT_ID><CENTER_NAME>EARTH</CENTER_NAME><REF_FRAME>TEME</REF_FRAME><TIME_SYSTEM>UTC</TIME_SYSTEM><MEAN_ELEMENT_THEORY>SGP4</MEAN_ELEMENT_THEORY></metadata><data><meanElements><EPOCH>2024-05-18T09:02:24.542880</EPOCH><MEAN_MOTION>11.27655077</MEAN_MOTION><ECCENTRICITY>.0003816</ECCENTRICITY><INCLINATION>52.0017</INCLINATION><RA_OF_ASC_NODE>16.9875</RA_OF_ASC_NODE><ARG_OF_PERICENTER>122.0301</ARG_OF_PERICENTER><MEAN_ANOMALY>49.1385</MEAN_ANOMALY></meanElements><tleParameters><EPHEMERIS_TYPE>0</EPHEMERIS_TYPE><CLASSIFICATION_TYPE>U</CLASSIFICATION_TYPE><NORAD_CAT_ID>25886</NORAD_CAT_ID><ELEMENT_SET_NO>999</ELEMENT_SET_NO><REV_AT_EPOCH>7490</REV_AT_EPOCH><BSTAR>.38439E-3</BSTAR><MEAN_MOTION_DOT>-.55E-6</MEAN_MOTION_DOT><MEAN_MOTION_DDOT>0</MEAN_MOTION_DDOT></tleParameters></data></segment></body></omm>
<omm id="CCSDS_OMM_VERS" version="2.0">
<header><CREATION_DATE/><ORIGINATOR/></header><body><segment><metadata><OBJECT_NAME>GLOBALSTAR M058</OBJECT_NAME><OBJECT_ID>1999-049A</OBJECT_ID><CENTER_NAME>EARTH</CENTER_NAME><REF_FRAME>TEME</REF_FRAME><TIME_SYSTEM>UTC</TIME_SYSTEM><MEAN_ELEMENT_THEORY>SGP4</MEAN_ELEMENT_THEORY></metadata><data><meanElements><EPOCH>2024-05-18T13:54:10.801152</EPOCH><MEAN_MOTION>11.93177998</MEAN_MOTION><ECCENTRICITY>.0002056</ECCENTRICITY><INCLINATION>51.9944</INCLINATION><RA_OF_ASC_NODE>82.8600</RA_OF_ASC_NODE><ARG_OF_PERICENTER>245.9125</ARG_OF_PERICENTER><MEAN_ANOMALY>114.1495</MEAN_ANOMALY></meanElements><tleParameters><EPHEMERIS_TYPE>0</EPHEMERIS_TYPE><CLASSIFICATION_TYPE>U</CLASSIFICATION_TYPE><NORAD_CAT_ID>25907</NORAD_CAT_ID><ELEMENT_SET_NO>999</ELEMENT_SET_NO><REV_AT_EPOCH>10564</REV_AT_EPOCH><BSTAR>.73754E-3</BSTAR><MEAN_MOTION_DOT>-.3E-6</MEAN_MOTION_DOT><MEAN_MOTION_DDOT>0</MEAN_MOTION_DDOT></tleParameters></data></segment></body></omm>
<omm id="CCSDS_OMM_VERS" version="2.0">
<header><CREATION_DATE/><ORIGINATOR/></header><body><segment><metadata><OBJECT_NAME>GLOBALSTAR M050</OBJECT_NAME><OBJECT_ID>1999-049B</OBJECT_ID><CENTER_NAME>EARTH</CENTER_NAME><REF_FRAME>TEME</REF_FRAME><TIME_SYSTEM>UTC</TIME_SYSTEM><MEAN_ELEMENT_THEORY>SGP4</MEAN_ELEMENT_THEORY></metadata><data><meanElements><EPOCH>2024-05-18T08:48:01.363680</EPOCH><MEAN_MOTION>12.07434431</MEAN_MOTION><ECCENTRICITY>.0009289</ECCENTRICITY><INCLINATION>51.9968</INCLINATION><RA_OF_ASC_NODE>120.6012</RA_OF_ASC_NODE><ARG_OF_PERICENTER>326.0197</ARG_OF_PERICENTER><MEAN_ANOMALY>183.9619</MEAN_ANOMALY></meanElements><tleParameters><EPHEMERIS_TYPE>0</EPHEMERIS_TYPE><CLASSIFICATION_TYPE>U</CLASSIFICATION_TYPE><NORAD_CAT_ID>25908</NORAD_CAT_ID><ELEMENT_SET_NO>999</ELEMENT_SET_NO><REV_AT_EPOCH>10049</REV_AT_EPOCH><BSTAR>.17153E-2</BSTAR><MEAN_MOTION_DOT>.64E-6</MEAN_MOTION_DOT><MEAN_MOTION_DDOT>0</MEAN_MOTION_DDOT></tleParameters></data></segment></body></omm>
<omm id="CCSDS_OMM_VERS" version="2.0">
<header><CREATION_DATE/><ORIGINATOR/></header><body><segment><metadata><OBJECT_NAME>GLOBALSTAR M033</OBJECT_NAME><OBJECT_ID>1999-049C</OBJECT_ID><CENTER_NAME>EARTH</CENTER_NAME><REF_FRAME>TEME</REF_FRAME><TIME_SYSTEM>UTC</TIME_SYSTEM><MEAN_ELEMENT_THEORY>SGP4</MEAN_ELEMENT_THEORY></metadata><data><meanElements><EPOCH>2024-05-18T20:55:22.862496</EPOCH><MEAN_MOTION>12.20273710</MEAN_MOTION><ECCENTRICITY>.0011769</ECCENTRICITY><INCLINATION>51.9938</INCLINATION><RA_OF_ASC_NODE>18.2864</RA_OF_ASC_NODE><ARG_OF_PERICENTER>174.0727</ARG_OF_PERICENTER><MEAN_ANOMALY>186.0261</MEAN_ANOMALY></meanElements><tleParameters><EPHEMERIS_TYPE>0</EPHEMERIS_TYPE><CLASSIFICATION_TYPE>U</CLASSIFICATION_TYPE><NORAD_CAT_ID>25909</NORAD_CAT_ID><ELEMENT_SET_NO>999</ELEMENT_SET_NO><REV_AT_EPOCH>12032</REV_AT_EPOCH><BSTAR>.63435E-3</BSTAR><MEAN_MOTION_DOT>-.26E-6</MEAN_MOTION_DOT><MEAN_MOTION_DDOT>0</MEAN_MOTION_DDOT></tleParameters></data></segment></body></omm>
<omm id="CCSDS_OMM_VERS" version="2.0">
<header><CREATION_DATE/><ORIGINATOR/></header><body><segment><metadata><OBJECT_NAME>GLOBALSTAR M055</OBJECT_NAME><OBJECT_ID>1999-049D</OBJECT_ID><CENTER_NAME>EARTH</CENTER_NAME><REF_FRAME>TEME</REF_FRAME><TIME_SYSTEM>UTC</TIME_SYSTEM><MEAN_ELEMENT_THEORY>SGP4</MEAN_ELEMENT_THEORY></metadata><data><meanElements><EPOCH>2024-05-18T10:59:03.018048</EPOCH><MEAN_MOTION>12.29401456</MEAN_MOTION><ECCENTRICITY>.0007637</ECCENTRICITY><INCLINATION>52.0041</INCLINATION><RA_OF_ASC_NODE>49.4067</RA_OF_ASC_NODE><ARG_OF_PERICENTER>34.2220</ARG_OF_PERICENTER><MEAN_ANOMALY>325.9123</MEAN_ANOMALY></meanElements><tleParameters><EPHEMERIS_TYPE>0</EPHEMERIS_TYPE><CLASSIFICATION_TYPE>U</CLASSIFICATION_TYPE><NORAD_CAT_ID>25910</NORAD_CAT_ID><ELEMENT_SET_NO>999</ELEMENT_SET_NO><REV_AT_EPOCH>11973</REV_AT_EPOCH><BSTAR>.2158E-3</BSTAR><MEAN_MOTION_DOT>-.69E-6</MEAN_MOTION_DOT><MEAN_MOTION_DDOT>0</MEAN_MOTION_DDOT></tleParameters></data></segment></body></omm>

</ndm>
