GLOBALSTAR M024         
1 25883U 99043A   24139.44875975 -.00000121  00000+0 -20000-2 0  9998
2 25883  51.9990 191.2837 0001798 184.2938 188.4151 11.10158955 71026
GLOBALSTAR M027         
1 25884U 99043B   24139.58981499 -.00000018  00000+0  17270-2 0  9992
2 25884  52.0213 257.7681 0021580  75.7720 284.5469 11.04368665 97646
GLOBALSTAR M054         
1 25885U 99043C   24139.57405727 -.00000061  00000+0  24913-3 0  9998
2 25885  52.0129  91.3200 0004386 224.3826 308.9778 11.39203388 74070
GLOBALSTAR M053         
1 25886U 99043D   24139.37667295 -.00000055  00000+0  38439-3 0  9998
2 25886  52.0017  16.9875 0003816 122.0301  49.1385 11.27655077 74900
GLOBALSTAR M058         
1 25907U 99049A   24139.57929168 -.00000030  00000+0  73754-3 0  9992
2 25907  51.9944  82.8600 0002056 245.9125 114.1495 11.93177998105648
GLOBALSTAR M050         
1 25908U 99049B   24139.36668245  .00000064  00000+0  17153-2 0  9992
2 25908  51.9968 120.6012 0009289 326.0197 183.9619 12.07434431100492
GLOBALSTAR M033         
1 25909U 99049C   24139.87179239 -.00000026  00000+0  63435-3 0  9993
2 25909  51.9938  18.2864 0011769 174.0727 186.0261 12.20273710120320
GLOBALSTAR M055         
1 25910U 99049D   24139.45767382 -.00000069  00000+0  21580-3 0  9993
2 25910  52.0041  49.4067 0007637  34.2220 325.9123 12.29401456119737
